{
"type": "FeatureCollection",
"name": "conflict_records",
"crs": { "type": "name", "properties": { "name": "urn:ogc:def:crs:OGC:1.3:CRS84" } },
"features": [
{ "type": "Feature", "properties": { "District": "Hwange", "Latitude": -18.3, "Longitude": 26.5, "Species": "Elephant", "Conflict_Type": "Crop Raiding", "Severity": "High", "Land_Use": "Communal Farmland", "Mitigation_Action": "Chilli Fencing & Deterrents" }, "geometry": { "type": "Point", "coordinates": [ 26.5, -18.3 ] } },
{ "type": "Feature", "properties": { "District": "Hwange", "Latitude": -18.3645, "Longitude": 26.4988, "Species": "Elephant", "Conflict_Type": "Crop Raiding", "Severity": "High", "Land_Use": "Communal Farmland", "Mitigation_Action": "Chilli Fencing & Deterrents" }, "geometry": { "type": "Point", "coordinates": [ 26.4988, -18.3645 ] } },
{ "type": "Feature", "properties": { "District": "Hwange", "Latitude": -18.36472, "Longitude": 26.5, "Species": "Elephant", "Conflict_Type": "Crop Raiding", "Severity": "High", "Land_Use": "Communal Farmland", "Mitigation_Action": "Chilli Fencing & Deterrents" }, "geometry": { "type": "Point", "coordinates": [ 26.5, -18.36472 ] } },
{ "type": "Feature", "properties": { "District": "Hwange", "Latitude": -18.35, "Longitude": 26.48, "Species": "Elephant", "Conflict_Type": "Crop Raiding", "Severity": "High", "Land_Use": "Communal Farmland", "Mitigation_Action": "Chilli Fencing & Deterrents" }, "geometry": { "type": "Point", "coordinates": [ 26.48, -18.35 ] } },
{ "type": "Feature", "properties": { "District": "Hwange", "Latitude": -20.1441, "Longitude": 28.5764, "Species": "Elephant", "Conflict_Type": "Crop Raiding", "Severity": "High", "Land_Use": "Communal Farmland", "Mitigation_Action": "Chilli Fencing & Deterrents" }, "geometry": { "type": "Point", "coordinates": [ 28.5764, -20.1441 ] } },
{ "type": "Feature", "properties": { "District": "Hwange", "Latitude": -18.67, "Longitude": 26.2, "Species": "Nile Crocodile", "Conflict_Type": "Human Injury Risk / Livestock Risk", "Severity": "High", "Land_Use": "Watering Point / River", "Mitigation_Action": "Warning Signage & Fencing" }, "geometry": { "type": "Point", "coordinates": [ 26.2, -18.67 ] } },
{ "type": "Feature", "properties": { "District": "Hwange", "Latitude": -18.4, "Longitude": 26.55, "Species": "Nile Crocodile", "Conflict_Type": "Human Injury Risk / Livestock Risk", "Severity": "High", "Land_Use": "Watering Point / River", "Mitigation_Action": "Warning Signage & Fencing" }, "geometry": { "type": "Point", "coordinates": [ 26.55, -18.4 ] } },
{ "type": "Feature", "properties": { "District": "Hwange", "Latitude": -18.4, "Longitude": 26.4, "Species": "Spotted Hyena", "Conflict_Type": "Livestock Depredation", "Severity": "Medium", "Land_Use": "Buffer Zone", "Mitigation_Action": "Reinforced Bomas (Kraals)" }, "geometry": { "type": "Point", "coordinates": [ 26.4, -18.4 ] } },
{ "type": "Feature", "properties": { "District": "Hwange", "Latitude": -18.36, "Longitude": 26.51, "Species": "Elephant", "Conflict_Type": "Crop Raiding", "Severity": "High", "Land_Use": "Communal Farmland", "Mitigation_Action": "Chilli Fencing & Deterrents" }, "geometry": { "type": "Point", "coordinates": [ 26.51, -18.36 ] } },
{ "type": "Feature", "properties": { "District": "Hwange", "Latitude": -18.366, "Longitude": 26.4985, "Species": "Elephant", "Conflict_Type": "Crop Raiding", "Severity": "High", "Land_Use": "Communal Farmland", "Mitigation_Action": "Chilli Fencing & Deterrents" }, "geometry": { "type": "Point", "coordinates": [ 26.4985, -18.366 ] } },
{ "type": "Feature", "properties": { "District": "Hwange", "Latitude": -17.86668, "Longitude": 25.795, "Species": "Nile Crocodile", "Conflict_Type": "Human Injury Risk / Livestock Risk", "Severity": "High", "Land_Use": "Watering Point / River", "Mitigation_Action": "Warning Signage & Fencing" }, "geometry": { "type": "Point", "coordinates": [ 25.795, -17.86668 ] } },
{ "type": "Feature", "properties": { "District": "Hwange", "Latitude": -18.3645, "Longitude": 26.4988, "Species": "Elephant", "Conflict_Type": "Crop Raiding", "Severity": "High", "Land_Use": "Communal Farmland", "Mitigation_Action": "Chilli Fencing & Deterrents" }, "geometry": { "type": "Point", "coordinates": [ 26.4988, -18.3645 ] } },
{ "type": "Feature", "properties": { "District": "Hwange", "Latitude": -18.25, "Longitude": 26.6, "Species": "Elephant", "Conflict_Type": "Crop Raiding", "Severity": "High", "Land_Use": "Communal Farmland", "Mitigation_Action": "Chilli Fencing & Deterrents" }, "geometry": { "type": "Point", "coordinates": [ 26.6, -18.25 ] } },
{ "type": "Feature", "properties": { "District": "Hwange", "Latitude": -18.31, "Longitude": 26.52, "Species": "Lion", "Conflict_Type": "Livestock Depredation", "Severity": "High", "Land_Use": "Buffer Zone", "Mitigation_Action": "Ranger Patrols & Bomas" }, "geometry": { "type": "Point", "coordinates": [ 26.52, -18.31 ] } },
{ "type": "Feature", "properties": { "District": "Hwange", "Latitude": -18.34, "Longitude": 26.48, "Species": "Nile Crocodile", "Conflict_Type": "Human Injury Risk / Livestock Risk", "Severity": "High", "Land_Use": "Watering Point / River", "Mitigation_Action": "Warning Signage & Fencing" }, "geometry": { "type": "Point", "coordinates": [ 26.48, -18.34 ] } },
{ "type": "Feature", "properties": { "District": "Hwange", "Latitude": -18.38, "Longitude": 26.53, "Species": "Spotted Hyena", "Conflict_Type": "Livestock Depredation", "Severity": "Medium", "Land_Use": "Buffer Zone", "Mitigation_Action": "Reinforced Bomas (Kraals)" }, "geometry": { "type": "Point", "coordinates": [ 26.53, -18.38 ] } },
{ "type": "Feature", "properties": { "District": "Hwange", "Latitude": -18.295, "Longitude": 26.475, "Species": "Baboon", "Conflict_Type": "Property & Crop Damage", "Severity": "Low", "Land_Use": "Settlement Edge", "Mitigation_Action": "Waste Management & Chasing" }, "geometry": { "type": "Point", "coordinates": [ 26.475, -18.295 ] } },
{ "type": "Feature", "properties": { "District": "Hwange", "Latitude": -18.365, "Longitude": 26.51, "Species": "Elephant", "Conflict_Type": "Crop Raiding", "Severity": "High", "Land_Use": "Communal Farmland", "Mitigation_Action": "Chilli Fencing & Deterrents" }, "geometry": { "type": "Point", "coordinates": [ 26.51, -18.365 ] } },
{ "type": "Feature", "properties": { "District": "Hwange", "Latitude": -18.37, "Longitude": 26.495, "Species": "Elephant", "Conflict_Type": "Crop Raiding", "Severity": "High", "Land_Use": "Communal Farmland", "Mitigation_Action": "Chilli Fencing & Deterrents" }, "geometry": { "type": "Point", "coordinates": [ 26.495, -18.37 ] } },
{ "type": "Feature", "properties": { "District": "Hwange", "Latitude": -18.3705, "Longitude": 26.4935, "Species": "Hippopotamus", "Conflict_Type": "Crop Raiding & River Access", "Severity": "High", "Land_Use": "Riverine Farmland", "Mitigation_Action": "Trenching & Fencing" }, "geometry": { "type": "Point", "coordinates": [ 26.4935, -18.3705 ] } },
{ "type": "Feature", "properties": { "District": "Hwange", "Latitude": -18.355, "Longitude": 26.505, "Species": "Elephant", "Conflict_Type": "Crop Raiding", "Severity": "High", "Land_Use": "Communal Farmland", "Mitigation_Action": "Chilli Fencing & Deterrents" }, "geometry": { "type": "Point", "coordinates": [ 26.505, -18.355 ] } },
{ "type": "Feature", "properties": { "District": "Hwange", "Latitude": -18.36, "Longitude": 26.52, "Species": "Spotted Hyena", "Conflict_Type": "Livestock Depredation", "Severity": "Medium", "Land_Use": "Buffer Zone", "Mitigation_Action": "Reinforced Bomas (Kraals)" }, "geometry": { "type": "Point", "coordinates": [ 26.52, -18.36 ] } },
{ "type": "Feature", "properties": { "District": "Hwange", "Latitude": -18.345, "Longitude": 26.515, "Species": "Buffalo", "Conflict_Type": "Crop Raiding & Disease Risk", "Severity": "Medium", "Land_Use": "Communal Grazing Area", "Mitigation_Action": "Veterinary Fencing" }, "geometry": { "type": "Point", "coordinates": [ 26.515, -18.345 ] } },
{ "type": "Feature", "properties": { "District": "Hwange", "Latitude": -18.358, "Longitude": 26.499, "Species": "Nile Crocodile", "Conflict_Type": "Human Injury Risk / Livestock Risk", "Severity": "High", "Land_Use": "Watering Point / River", "Mitigation_Action": "Warning Signage & Fencing" }, "geometry": { "type": "Point", "coordinates": [ 26.499, -18.358 ] } },
{ "type": "Feature", "properties": { "District": "Hwange", "Latitude": -18.3505, "Longitude": 26.5025, "Species": "Lion", "Conflict_Type": "Livestock Depredation", "Severity": "High", "Land_Use": "Buffer Zone", "Mitigation_Action": "Ranger Patrols & Bomas" }, "geometry": { "type": "Point", "coordinates": [ 26.5025, -18.3505 ] } },
{ "type": "Feature", "properties": { "District": "Hwange", "Latitude": -18.3665, "Longitude": 26.5018, "Species": "Elephant", "Conflict_Type": "Crop Raiding", "Severity": "High", "Land_Use": "Communal Farmland", "Mitigation_Action": "Chilli Fencing & Deterrents" }, "geometry": { "type": "Point", "coordinates": [ 26.5018, -18.3665 ] } },
{ "type": "Feature", "properties": { "District": "Hwange", "Latitude": -18.372, "Longitude": 26.506, "Species": "Spotted Hyena", "Conflict_Type": "Livestock Depredation", "Severity": "Medium", "Land_Use": "Buffer Zone", "Mitigation_Action": "Reinforced Bomas (Kraals)" }, "geometry": { "type": "Point", "coordinates": [ 26.506, -18.372 ] } },
{ "type": "Feature", "properties": { "District": "Hwange", "Latitude": -18.33, "Longitude": 26.53, "Species": "Elephant", "Conflict_Type": "Crop Raiding", "Severity": "High", "Land_Use": "Communal Farmland", "Mitigation_Action": "Chilli Fencing & Deterrents" }, "geometry": { "type": "Point", "coordinates": [ 26.53, -18.33 ] } },
{ "type": "Feature", "properties": { "District": "Hwange", "Latitude": -18.39, "Longitude": 26.48, "Species": "Elephant", "Conflict_Type": "Crop Raiding", "Severity": "High", "Land_Use": "Communal Farmland", "Mitigation_Action": "Chilli Fencing & Deterrents" }, "geometry": { "type": "Point", "coordinates": [ 26.48, -18.39 ] } },
{ "type": "Feature", "properties": { "District": "Hwange", "Latitude": -18.3608, "Longitude": 26.4992, "Species": "Elephant", "Conflict_Type": "Crop Raiding", "Severity": "High", "Land_Use": "Communal Farmland", "Mitigation_Action": "Chilli Fencing & Deterrents" }, "geometry": { "type": "Point", "coordinates": [ 26.4992, -18.3608 ] } },
{ "type": "Feature", "properties": { "District": "Hwange", "Latitude": -18.3455, "Longitude": 26.4905, "Species": "Nile Crocodile", "Conflict_Type": "Human Injury Risk / Livestock Risk", "Severity": "High", "Land_Use": "Watering Point / River", "Mitigation_Action": "Warning Signage & Fencing" }, "geometry": { "type": "Point", "coordinates": [ 26.4905, -18.3455 ] } },
{ "type": "Feature", "properties": { "District": "Hwange", "Latitude": -18.362, "Longitude": 26.5, "Species": "Elephant", "Conflict_Type": "Crop Raiding", "Severity": "High", "Land_Use": "Communal Farmland", "Mitigation_Action": "Chilli Fencing & Deterrents" }, "geometry": { "type": "Point", "coordinates": [ 26.5, -18.362 ] } },
{ "type": "Feature", "properties": { "District": "Hwange", "Latitude": -18.613051014188063, "Longitude": 26.678803565764184, "Species": "Buffalo", "Conflict_Type": "Crop Raiding & Disease Risk", "Severity": "Medium", "Land_Use": "Communal Grazing Area", "Mitigation_Action": "Veterinary Fencing" }, "geometry": { "type": "Point", "coordinates": [ 26.678803565764184, -18.613051014188063 ] } },
{ "type": "Feature", "properties": { "District": "Hwange", "Latitude": -18.700089188338229, "Longitude": 26.932013557434864, "Species": "Buffalo", "Conflict_Type": "Crop Raiding & Disease Risk", "Severity": "Medium", "Land_Use": "Communal Grazing Area", "Mitigation_Action": "Veterinary Fencing" }, "geometry": { "type": "Point", "coordinates": [ 26.932013557434864, -18.700089188338229 ] } },
{ "type": "Feature", "properties": { "District": "Hwange", "Latitude": -18.86333092103045, "Longitude": 26.597236955996689, "Species": "Buffalo", "Conflict_Type": "Crop Raiding & Disease Risk", "Severity": "Medium", "Land_Use": "Communal Grazing Area", "Mitigation_Action": "Veterinary Fencing" }, "geometry": { "type": "Point", "coordinates": [ 26.597236955996689, -18.86333092103045 ] } },
{ "type": "Feature", "properties": { "District": "Hwange", "Latitude": -18.149448226512813, "Longitude": 26.853717094256627, "Species": "Buffalo", "Conflict_Type": "Crop Raiding & Disease Risk", "Severity": "Medium", "Land_Use": "Communal Grazing Area", "Mitigation_Action": "Veterinary Fencing" }, "geometry": { "type": "Point", "coordinates": [ 26.853717094256627, -18.149448226512813 ] } },
{ "type": "Feature", "properties": { "District": "Hwange", "Latitude": -18.744710242692868, "Longitude": 26.46168351087762, "Species": "Buffalo", "Conflict_Type": "Crop Raiding & Disease Risk", "Severity": "Medium", "Land_Use": "Communal Grazing Area", "Mitigation_Action": "Veterinary Fencing" }, "geometry": { "type": "Point", "coordinates": [ 26.46168351087762, -18.744710242692868 ] } },
{ "type": "Feature", "properties": { "District": "Hwange", "Latitude": -18.714044819584192, "Longitude": 26.417700210593772, "Species": "Buffalo", "Conflict_Type": "Crop Raiding & Disease Risk", "Severity": "Medium", "Land_Use": "Communal Grazing Area", "Mitigation_Action": "Veterinary Fencing" }, "geometry": { "type": "Point", "coordinates": [ 26.417700210593772, -18.714044819584192 ] } },
{ "type": "Feature", "properties": { "District": "Hwange", "Latitude": -18.854077704275849, "Longitude": 26.306049895836161, "Species": "Buffalo", "Conflict_Type": "Crop Raiding & Disease Risk", "Severity": "Medium", "Land_Use": "Communal Grazing Area", "Mitigation_Action": "Veterinary Fencing" }, "geometry": { "type": "Point", "coordinates": [ 26.306049895836161, -18.854077704275849 ] } },
{ "type": "Feature", "properties": { "District": "Hwange", "Latitude": -17.929128287279582, "Longitude": 26.798580608398662, "Species": "Buffalo", "Conflict_Type": "Crop Raiding & Disease Risk", "Severity": "Medium", "Land_Use": "Communal Grazing Area", "Mitigation_Action": "Veterinary Fencing" }, "geometry": { "type": "Point", "coordinates": [ 26.798580608398662, -17.929128287279582 ] } },
{ "type": "Feature", "properties": { "District": "Hwange", "Latitude": -18.263294664624489, "Longitude": 26.933857923378351, "Species": "Buffalo", "Conflict_Type": "Crop Raiding & Disease Risk", "Severity": "Medium", "Land_Use": "Communal Grazing Area", "Mitigation_Action": "Veterinary Fencing" }, "geometry": { "type": "Point", "coordinates": [ 26.933857923378351, -18.263294664624489 ] } },
{ "type": "Feature", "properties": { "District": "Hwange", "Latitude": -18.56118865451792, "Longitude": 26.081349075733449, "Species": "Buffalo", "Conflict_Type": "Crop Raiding & Disease Risk", "Severity": "Medium", "Land_Use": "Communal Grazing Area", "Mitigation_Action": "Veterinary Fencing" }, "geometry": { "type": "Point", "coordinates": [ 26.081349075733449, -18.56118865451792 ] } },
{ "type": "Feature", "properties": { "District": "Hwange", "Latitude": -17.918976291514586, "Longitude": 26.000620407607308, "Species": "Buffalo", "Conflict_Type": "Crop Raiding & Disease Risk", "Severity": "Medium", "Land_Use": "Communal Grazing Area", "Mitigation_Action": "Veterinary Fencing" }, "geometry": { "type": "Point", "coordinates": [ 26.000620407607308, -17.918976291514586 ] } },
{ "type": "Feature", "properties": { "District": "Hwange", "Latitude": -18.404786667890011, "Longitude": 26.72232885312344, "Species": "Buffalo", "Conflict_Type": "Crop Raiding & Disease Risk", "Severity": "Medium", "Land_Use": "Communal Grazing Area", "Mitigation_Action": "Veterinary Fencing" }, "geometry": { "type": "Point", "coordinates": [ 26.72232885312344, -18.404786667890011 ] } },
{ "type": "Feature", "properties": { "District": "Hwange", "Latitude": -18.301682646528171, "Longitude": 26.70427771582985, "Species": "Buffalo", "Conflict_Type": "Crop Raiding & Disease Risk", "Severity": "Medium", "Land_Use": "Communal Grazing Area", "Mitigation_Action": "Veterinary Fencing" }, "geometry": { "type": "Point", "coordinates": [ 26.70427771582985, -18.301682646528171 ] } },
{ "type": "Feature", "properties": { "District": "Hwange", "Latitude": -18.535586840148749, "Longitude": 26.25802124940369, "Species": "Spotted Hyena", "Conflict_Type": "Livestock Depredation", "Severity": "Medium", "Land_Use": "Buffer Zone", "Mitigation_Action": "Reinforced Bomas (Kraals)" }, "geometry": { "type": "Point", "coordinates": [ 26.25802124940369, -18.535586840148749 ] } },
{ "type": "Feature", "properties": { "District": "Hwange", "Latitude": -18.117760179792715, "Longitude": 26.538653569769068, "Species": "Spotted Hyena", "Conflict_Type": "Livestock Depredation", "Severity": "Medium", "Land_Use": "Buffer Zone", "Mitigation_Action": "Reinforced Bomas (Kraals)" }, "geometry": { "type": "Point", "coordinates": [ 26.538653569769068, -18.117760179792715 ] } },
{ "type": "Feature", "properties": { "District": "Hwange", "Latitude": -18.28996426883689, "Longitude": 26.980755768987049, "Species": "Spotted Hyena", "Conflict_Type": "Livestock Depredation", "Severity": "Medium", "Land_Use": "Buffer Zone", "Mitigation_Action": "Reinforced Bomas (Kraals)" }, "geometry": { "type": "Point", "coordinates": [ 26.980755768987049, -18.28996426883689 ] } },
{ "type": "Feature", "properties": { "District": "Hwange", "Latitude": -18.035745127364475, "Longitude": 26.54388041053836, "Species": "Spotted Hyena", "Conflict_Type": "Livestock Depredation", "Severity": "Medium", "Land_Use": "Buffer Zone", "Mitigation_Action": "Reinforced Bomas (Kraals)" }, "geometry": { "type": "Point", "coordinates": [ 26.54388041053836, -18.035745127364475 ] } },
{ "type": "Feature", "properties": { "District": "Hwange", "Latitude": -18.569060653365387, "Longitude": 26.97673241032464, "Species": "Spotted Hyena", "Conflict_Type": "Livestock Depredation", "Severity": "Medium", "Land_Use": "Buffer Zone", "Mitigation_Action": "Reinforced Bomas (Kraals)" }, "geometry": { "type": "Point", "coordinates": [ 26.97673241032464, -18.569060653365387 ] } },
{ "type": "Feature", "properties": { "District": "Hwange", "Latitude": -18.099246391434928, "Longitude": 26.347866794943144, "Species": "Spotted Hyena", "Conflict_Type": "Livestock Depredation", "Severity": "Medium", "Land_Use": "Buffer Zone", "Mitigation_Action": "Reinforced Bomas (Kraals)" }, "geometry": { "type": "Point", "coordinates": [ 26.347866794943144, -18.099246391434928 ] } },
{ "type": "Feature", "properties": { "District": "Hwange", "Latitude": -17.891198817567041, "Longitude": 26.88860595330004, "Species": "Spotted Hyena", "Conflict_Type": "Livestock Depredation", "Severity": "Medium", "Land_Use": "Buffer Zone", "Mitigation_Action": "Reinforced Bomas (Kraals)" }, "geometry": { "type": "Point", "coordinates": [ 26.88860595330004, -17.891198817567041 ] } },
{ "type": "Feature", "properties": { "District": "Hwange", "Latitude": -17.998247102772659, "Longitude": 26.524178729720024, "Species": "Nile Crocodile", "Conflict_Type": "Human Injury Risk / Livestock Risk", "Severity": "High", "Land_Use": "Watering Point / River", "Mitigation_Action": "Warning Signage & Fencing" }, "geometry": { "type": "Point", "coordinates": [ 26.524178729720024, -17.998247102772659 ] } },
{ "type": "Feature", "properties": { "District": "Hwange", "Latitude": -18.813666803675101, "Longitude": 26.9335135321457, "Species": "Nile Crocodile", "Conflict_Type": "Human Injury Risk / Livestock Risk", "Severity": "High", "Land_Use": "Watering Point / River", "Mitigation_Action": "Warning Signage & Fencing" }, "geometry": { "type": "Point", "coordinates": [ 26.9335135321457, -18.813666803675101 ] } },
{ "type": "Feature", "properties": { "District": "Hwange", "Latitude": -18.405257371283248, "Longitude": 26.142103553657659, "Species": "Nile Crocodile", "Conflict_Type": "Human Injury Risk / Livestock Risk", "Severity": "High", "Land_Use": "Watering Point / River", "Mitigation_Action": "Warning Signage & Fencing" }, "geometry": { "type": "Point", "coordinates": [ 26.142103553657659, -18.405257371283248 ] } },
{ "type": "Feature", "properties": { "District": "Hwange", "Latitude": -17.91383483588201, "Longitude": 26.932341458846132, "Species": "Nile Crocodile", "Conflict_Type": "Human Injury Risk / Livestock Risk", "Severity": "High", "Land_Use": "Watering Point / River", "Mitigation_Action": "Warning Signage & Fencing" }, "geometry": { "type": "Point", "coordinates": [ 26.932341458846132, -17.91383483588201 ] } },
{ "type": "Feature", "properties": { "District": "Hwange", "Latitude": -18.249462359291918, "Longitude": 26.546570943537933, "Species": "Nile Crocodile", "Conflict_Type": "Human Injury Risk / Livestock Risk", "Severity": "High", "Land_Use": "Watering Point / River", "Mitigation_Action": "Warning Signage & Fencing" }, "geometry": { "type": "Point", "coordinates": [ 26.546570943537933, -18.249462359291918 ] } },
{ "type": "Feature", "properties": { "District": "Hwange", "Latitude": -18.617807186845361, "Longitude": 26.009994686061397, "Species": "Nile Crocodile", "Conflict_Type": "Human Injury Risk / Livestock Risk", "Severity": "High", "Land_Use": "Watering Point / River", "Mitigation_Action": "Warning Signage & Fencing" }, "geometry": { "type": "Point", "coordinates": [ 26.009994686061397, -18.617807186845361 ] } },
{ "type": "Feature", "properties": { "District": "Hwange", "Latitude": -18.863611919679983, "Longitude": 26.227927697032762, "Species": "Nile Crocodile", "Conflict_Type": "Human Injury Risk / Livestock Risk", "Severity": "High", "Land_Use": "Watering Point / River", "Mitigation_Action": "Warning Signage & Fencing" }, "geometry": { "type": "Point", "coordinates": [ 26.227927697032762, -18.863611919679983 ] } },
{ "type": "Feature", "properties": { "District": "Hwange", "Latitude": -18.596919490230128, "Longitude": 26.5228806115373, "Species": "Nile Crocodile", "Conflict_Type": "Human Injury Risk / Livestock Risk", "Severity": "High", "Land_Use": "Watering Point / River", "Mitigation_Action": "Warning Signage & Fencing" }, "geometry": { "type": "Point", "coordinates": [ 26.5228806115373, -18.596919490230128 ] } },
{ "type": "Feature", "properties": { "District": "Hwange", "Latitude": -18.734084028640751, "Longitude": 26.094030432549804, "Species": "Nile Crocodile", "Conflict_Type": "Human Injury Risk / Livestock Risk", "Severity": "High", "Land_Use": "Watering Point / River", "Mitigation_Action": "Warning Signage & Fencing" }, "geometry": { "type": "Point", "coordinates": [ 26.094030432549804, -18.734084028640751 ] } },
{ "type": "Feature", "properties": { "District": "Hwange", "Latitude": -17.983359473837858, "Longitude": 26.397598882714941, "Species": "Nile Crocodile", "Conflict_Type": "Human Injury Risk / Livestock Risk", "Severity": "High", "Land_Use": "Watering Point / River", "Mitigation_Action": "Warning Signage & Fencing" }, "geometry": { "type": "Point", "coordinates": [ 26.397598882714941, -17.983359473837858 ] } },
{ "type": "Feature", "properties": { "District": "Hwange", "Latitude": -18.734542396460441, "Longitude": 26.479186208548978, "Species": "Leopard", "Conflict_Type": "Small Stock Depredation", "Severity": "Medium", "Land_Use": "Buffer Zone", "Mitigation_Action": "Predator-proof Kraals" }, "geometry": { "type": "Point", "coordinates": [ 26.479186208548978, -18.734542396460441 ] } },
{ "type": "Feature", "properties": { "District": "Hwange", "Latitude": -18.072234141469217, "Longitude": 26.543800698299599, "Species": "Elephant", "Conflict_Type": "Crop Raiding", "Severity": "High", "Land_Use": "Communal Farmland", "Mitigation_Action": "Chilli Fencing & Deterrents" }, "geometry": { "type": "Point", "coordinates": [ 26.543800698299599, -18.072234141469217 ] } },
{ "type": "Feature", "properties": { "District": "Hwange", "Latitude": -18.567540922174807, "Longitude": 26.381071208222917, "Species": "Nile Crocodile", "Conflict_Type": "Human Injury Risk / Livestock Risk", "Severity": "High", "Land_Use": "Watering Point / River", "Mitigation_Action": "Warning Signage & Fencing" }, "geometry": { "type": "Point", "coordinates": [ 26.381071208222917, -18.567540922174807 ] } },
{ "type": "Feature", "properties": { "District": "Hwange", "Latitude": -18.038587407106483, "Longitude": 26.622151705683333, "Species": "Lion", "Conflict_Type": "Livestock Depredation", "Severity": "High", "Land_Use": "Buffer Zone", "Mitigation_Action": "Ranger Patrols & Bomas" }, "geometry": { "type": "Point", "coordinates": [ 26.622151705683333, -18.038587407106483 ] } },
{ "type": "Feature", "properties": { "District": "Hwange", "Latitude": -18.357097323773779, "Longitude": 26.044757563807035, "Species": "Spotted Hyena", "Conflict_Type": "Livestock Depredation", "Severity": "Medium", "Land_Use": "Buffer Zone", "Mitigation_Action": "Reinforced Bomas (Kraals)" }, "geometry": { "type": "Point", "coordinates": [ 26.044757563807035, -18.357097323773779 ] } },
{ "type": "Feature", "properties": { "District": "Hwange", "Latitude": -18.635817352358341, "Longitude": 26.556739704402421, "Species": "Buffalo", "Conflict_Type": "Crop Raiding & Disease Risk", "Severity": "Medium", "Land_Use": "Communal Grazing Area", "Mitigation_Action": "Veterinary Fencing" }, "geometry": { "type": "Point", "coordinates": [ 26.556739704402421, -18.635817352358341 ] } },
{ "type": "Feature", "properties": { "District": "Hwange", "Latitude": -18.531691768702569, "Longitude": 26.751676714294582, "Species": "Nile Crocodile", "Conflict_Type": "Human Injury Risk / Livestock Risk", "Severity": "High", "Land_Use": "Watering Point / River", "Mitigation_Action": "Warning Signage & Fencing" }, "geometry": { "type": "Point", "coordinates": [ 26.751676714294582, -18.531691768702569 ] } },
{ "type": "Feature", "properties": { "District": "Hwange", "Latitude": -18.512208626202163, "Longitude": 26.042106276244539, "Species": "Spotted Hyena", "Conflict_Type": "Livestock Depredation", "Severity": "Medium", "Land_Use": "Buffer Zone", "Mitigation_Action": "Reinforced Bomas (Kraals)" }, "geometry": { "type": "Point", "coordinates": [ 26.042106276244539, -18.512208626202163 ] } },
{ "type": "Feature", "properties": { "District": "Hwange", "Latitude": -17.959743462444457, "Longitude": 26.288487539519775, "Species": "Spotted Hyena", "Conflict_Type": "Livestock Depredation", "Severity": "Medium", "Land_Use": "Buffer Zone", "Mitigation_Action": "Reinforced Bomas (Kraals)" }, "geometry": { "type": "Point", "coordinates": [ 26.288487539519775, -17.959743462444457 ] } },
{ "type": "Feature", "properties": { "District": "Hwange", "Latitude": -18.568718136770048, "Longitude": 26.44487546513065, "Species": "Elephant", "Conflict_Type": "Crop Raiding", "Severity": "High", "Land_Use": "Communal Farmland", "Mitigation_Action": "Chilli Fencing & Deterrents" }, "geometry": { "type": "Point", "coordinates": [ 26.44487546513065, -18.568718136770048 ] } },
{ "type": "Feature", "properties": { "District": "Hwange", "Latitude": -18.320064690273359, "Longitude": 26.451353818618081, "Species": "Spotted Hyena", "Conflict_Type": "Livestock Depredation", "Severity": "Medium", "Land_Use": "Buffer Zone", "Mitigation_Action": "Reinforced Bomas (Kraals)" }, "geometry": { "type": "Point", "coordinates": [ 26.451353818618081, -18.320064690273359 ] } },
{ "type": "Feature", "properties": { "District": "Hwange", "Latitude": -17.963192393509832, "Longitude": 26.171008621353131, "Species": "Spotted Hyena", "Conflict_Type": "Livestock Depredation", "Severity": "Medium", "Land_Use": "Buffer Zone", "Mitigation_Action": "Reinforced Bomas (Kraals)" }, "geometry": { "type": "Point", "coordinates": [ 26.171008621353131, -17.963192393509832 ] } },
{ "type": "Feature", "properties": { "District": "Hwange", "Latitude": -18.61380049023585, "Longitude": 26.974939737787416, "Species": "Lion", "Conflict_Type": "Livestock Depredation", "Severity": "High", "Land_Use": "Buffer Zone", "Mitigation_Action": "Ranger Patrols & Bomas" }, "geometry": { "type": "Point", "coordinates": [ 26.974939737787416, -18.61380049023585 ] } },
{ "type": "Feature", "properties": { "District": "Hwange", "Latitude": -18.674226069821209, "Longitude": 26.502380739136989, "Species": "Buffalo", "Conflict_Type": "Crop Raiding & Disease Risk", "Severity": "Medium", "Land_Use": "Communal Grazing Area", "Mitigation_Action": "Veterinary Fencing" }, "geometry": { "type": "Point", "coordinates": [ 26.502380739136989, -18.674226069821209 ] } },
{ "type": "Feature", "properties": { "District": "Hwange", "Latitude": -18.628360111591377, "Longitude": 26.170998337538038, "Species": "Nile Crocodile", "Conflict_Type": "Human Injury Risk / Livestock Risk", "Severity": "High", "Land_Use": "Watering Point / River", "Mitigation_Action": "Warning Signage & Fencing" }, "geometry": { "type": "Point", "coordinates": [ 26.170998337538038, -18.628360111591377 ] } },
{ "type": "Feature", "properties": { "District": "Hwange", "Latitude": -18.105063945284705, "Longitude": 26.004304275945469, "Species": "Nile Crocodile", "Conflict_Type": "Human Injury Risk / Livestock Risk", "Severity": "High", "Land_Use": "Watering Point / River", "Mitigation_Action": "Warning Signage & Fencing" }, "geometry": { "type": "Point", "coordinates": [ 26.004304275945469, -18.105063945284705 ] } },
{ "type": "Feature", "properties": { "District": "Hwange", "Latitude": -18.26208474288244, "Longitude": 26.062336403412608, "Species": "Lion", "Conflict_Type": "Livestock Depredation", "Severity": "High", "Land_Use": "Buffer Zone", "Mitigation_Action": "Ranger Patrols & Bomas" }, "geometry": { "type": "Point", "coordinates": [ 26.062336403412608, -18.26208474288244 ] } },
{ "type": "Feature", "properties": { "District": "Hwange", "Latitude": -18.806206660830416, "Longitude": 26.535793054801672, "Species": "Elephant", "Conflict_Type": "Crop Raiding", "Severity": "High", "Land_Use": "Communal Farmland", "Mitigation_Action": "Chilli Fencing & Deterrents" }, "geometry": { "type": "Point", "coordinates": [ 26.535793054801672, -18.806206660830416 ] } },
{ "type": "Feature", "properties": { "District": "Hwange", "Latitude": -18.052692515817625, "Longitude": 26.616186401415248, "Species": "Nile Crocodile", "Conflict_Type": "Human Injury Risk / Livestock Risk", "Severity": "High", "Land_Use": "Watering Point / River", "Mitigation_Action": "Warning Signage & Fencing" }, "geometry": { "type": "Point", "coordinates": [ 26.616186401415248, -18.052692515817625 ] } },
{ "type": "Feature", "properties": { "District": "Hwange", "Latitude": -18.278113310418043, "Longitude": 26.666664736451857, "Species": "Nile Crocodile", "Conflict_Type": "Human Injury Risk / Livestock Risk", "Severity": "High", "Land_Use": "Watering Point / River", "Mitigation_Action": "Warning Signage & Fencing" }, "geometry": { "type": "Point", "coordinates": [ 26.666664736451857, -18.278113310418043 ] } },
{ "type": "Feature", "properties": { "District": "Hwange", "Latitude": -18.540814844955118, "Longitude": 26.568378374872321, "Species": "Buffalo", "Conflict_Type": "Crop Raiding & Disease Risk", "Severity": "Medium", "Land_Use": "Communal Grazing Area", "Mitigation_Action": "Veterinary Fencing" }, "geometry": { "type": "Point", "coordinates": [ 26.568378374872321, -18.540814844955118 ] } },
{ "type": "Feature", "properties": { "District": "Hwange", "Latitude": -18.389421765742046, "Longitude": 26.700219668898779, "Species": "Elephant", "Conflict_Type": "Crop Raiding", "Severity": "High", "Land_Use": "Communal Farmland", "Mitigation_Action": "Chilli Fencing & Deterrents" }, "geometry": { "type": "Point", "coordinates": [ 26.700219668898779, -18.389421765742046 ] } },
{ "type": "Feature", "properties": { "District": "Hwange", "Latitude": -18.527931132885719, "Longitude": 26.401192662184904, "Species": "Nile Crocodile", "Conflict_Type": "Human Injury Risk / Livestock Risk", "Severity": "High", "Land_Use": "Watering Point / River", "Mitigation_Action": "Warning Signage & Fencing" }, "geometry": { "type": "Point", "coordinates": [ 26.401192662184904, -18.527931132885719 ] } },
{ "type": "Feature", "properties": { "District": "Hwange", "Latitude": -18.489979527218654, "Longitude": 26.277110858803109, "Species": "Nile Crocodile", "Conflict_Type": "Human Injury Risk / Livestock Risk", "Severity": "High", "Land_Use": "Watering Point / River", "Mitigation_Action": "Warning Signage & Fencing" }, "geometry": { "type": "Point", "coordinates": [ 26.277110858803109, -18.489979527218654 ] } },
{ "type": "Feature", "properties": { "District": "Hwange", "Latitude": -18.292784425090481, "Longitude": 26.591745527296851, "Species": "Nile Crocodile", "Conflict_Type": "Human Injury Risk / Livestock Risk", "Severity": "High", "Land_Use": "Watering Point / River", "Mitigation_Action": "Warning Signage & Fencing" }, "geometry": { "type": "Point", "coordinates": [ 26.591745527296851, -18.292784425090481 ] } },
{ "type": "Feature", "properties": { "District": "Hwange", "Latitude": -18.039907490433432, "Longitude": 26.623521461054555, "Species": "Nile Crocodile", "Conflict_Type": "Human Injury Risk / Livestock Risk", "Severity": "High", "Land_Use": "Watering Point / River", "Mitigation_Action": "Warning Signage & Fencing" }, "geometry": { "type": "Point", "coordinates": [ 26.623521461054555, -18.039907490433432 ] } },
{ "type": "Feature", "properties": { "District": "Hwange", "Latitude": -18.22499068325553, "Longitude": 26.799577214292182, "Species": "Spotted Hyena", "Conflict_Type": "Livestock Depredation", "Severity": "Medium", "Land_Use": "Buffer Zone", "Mitigation_Action": "Reinforced Bomas (Kraals)" }, "geometry": { "type": "Point", "coordinates": [ 26.799577214292182, -18.22499068325553 ] } },
{ "type": "Feature", "properties": { "District": "Hwange", "Latitude": -18.3315574626582, "Longitude": 26.718364274626332, "Species": "Elephant", "Conflict_Type": "Crop Raiding", "Severity": "High", "Land_Use": "Communal Farmland", "Mitigation_Action": "Chilli Fencing & Deterrents" }, "geometry": { "type": "Point", "coordinates": [ 26.718364274626332, -18.3315574626582 ] } },
{ "type": "Feature", "properties": { "District": "Hwange", "Latitude": -18.426893452034136, "Longitude": 26.309699604593291, "Species": "Spotted Hyena", "Conflict_Type": "Livestock Depredation", "Severity": "Medium", "Land_Use": "Buffer Zone", "Mitigation_Action": "Reinforced Bomas (Kraals)" }, "geometry": { "type": "Point", "coordinates": [ 26.309699604593291, -18.426893452034136 ] } },
{ "type": "Feature", "properties": { "District": "Hwange", "Latitude": -18.128564787361903, "Longitude": 26.256038354846478, "Species": "Buffalo", "Conflict_Type": "Crop Raiding & Disease Risk", "Severity": "Medium", "Land_Use": "Communal Grazing Area", "Mitigation_Action": "Veterinary Fencing" }, "geometry": { "type": "Point", "coordinates": [ 26.256038354846478, -18.128564787361903 ] } },
{ "type": "Feature", "properties": { "District": "Hwange", "Latitude": -17.967023921463039, "Longitude": 26.480216750194462, "Species": "Nile Crocodile", "Conflict_Type": "Human Injury Risk / Livestock Risk", "Severity": "High", "Land_Use": "Watering Point / River", "Mitigation_Action": "Warning Signage & Fencing" }, "geometry": { "type": "Point", "coordinates": [ 26.480216750194462, -17.967023921463039 ] } },
{ "type": "Feature", "properties": { "District": "Hwange", "Latitude": -18.594153879684679, "Longitude": 26.066676076584461, "Species": "Lion", "Conflict_Type": "Livestock Depredation", "Severity": "High", "Land_Use": "Buffer Zone", "Mitigation_Action": "Ranger Patrols & Bomas" }, "geometry": { "type": "Point", "coordinates": [ 26.066676076584461, -18.594153879684679 ] } },
{ "type": "Feature", "properties": { "District": "Hwange", "Latitude": -18.111173220592448, "Longitude": 26.362048751797481, "Species": "Lion", "Conflict_Type": "Livestock Depredation", "Severity": "High", "Land_Use": "Buffer Zone", "Mitigation_Action": "Ranger Patrols & Bomas" }, "geometry": { "type": "Point", "coordinates": [ 26.362048751797481, -18.111173220592448 ] } },
{ "type": "Feature", "properties": { "District": "Hwange", "Latitude": -18.285414255077217, "Longitude": 26.965799530357856, "Species": "Buffalo", "Conflict_Type": "Crop Raiding & Disease Risk", "Severity": "Medium", "Land_Use": "Communal Grazing Area", "Mitigation_Action": "Veterinary Fencing" }, "geometry": { "type": "Point", "coordinates": [ 26.965799530357856, -18.285414255077217 ] } },
{ "type": "Feature", "properties": { "District": "Hwange", "Latitude": -17.974937141701197, "Longitude": 26.720831122751601, "Species": "Buffalo", "Conflict_Type": "Crop Raiding & Disease Risk", "Severity": "Medium", "Land_Use": "Communal Grazing Area", "Mitigation_Action": "Veterinary Fencing" }, "geometry": { "type": "Point", "coordinates": [ 26.720831122751601, -17.974937141701197 ] } },
{ "type": "Feature", "properties": { "District": "Hwange", "Latitude": -18.228123930955508, "Longitude": 26.478156454825477, "Species": "Buffalo", "Conflict_Type": "Crop Raiding & Disease Risk", "Severity": "Medium", "Land_Use": "Communal Grazing Area", "Mitigation_Action": "Veterinary Fencing" }, "geometry": { "type": "Point", "coordinates": [ 26.478156454825477, -18.228123930955508 ] } },
{ "type": "Feature", "properties": { "District": "Hwange", "Latitude": -18.161409125901013, "Longitude": 26.967480825603623, "Species": "Elephant", "Conflict_Type": "Crop Raiding", "Severity": "High", "Land_Use": "Communal Farmland", "Mitigation_Action": "Chilli Fencing & Deterrents" }, "geometry": { "type": "Point", "coordinates": [ 26.967480825603623, -18.161409125901013 ] } },
{ "type": "Feature", "properties": { "District": "Hwange", "Latitude": -18.337782759855489, "Longitude": 26.703877970263378, "Species": "Lion", "Conflict_Type": "Livestock Depredation", "Severity": "High", "Land_Use": "Buffer Zone", "Mitigation_Action": "Ranger Patrols & Bomas" }, "geometry": { "type": "Point", "coordinates": [ 26.703877970263378, -18.337782759855489 ] } },
{ "type": "Feature", "properties": { "District": "Hwange", "Latitude": -18.790930438699263, "Longitude": 26.549213568770742, "Species": "Buffalo", "Conflict_Type": "Crop Raiding & Disease Risk", "Severity": "Medium", "Land_Use": "Communal Grazing Area", "Mitigation_Action": "Veterinary Fencing" }, "geometry": { "type": "Point", "coordinates": [ 26.549213568770742, -18.790930438699263 ] } },
{ "type": "Feature", "properties": { "District": "Hwange", "Latitude": -18.502096707328906, "Longitude": 26.602521782297121, "Species": "Spotted Hyena", "Conflict_Type": "Livestock Depredation", "Severity": "Medium", "Land_Use": "Buffer Zone", "Mitigation_Action": "Reinforced Bomas (Kraals)" }, "geometry": { "type": "Point", "coordinates": [ 26.602521782297121, -18.502096707328906 ] } },
{ "type": "Feature", "properties": { "District": "Hwange", "Latitude": -18.423924376326163, "Longitude": 26.046187702611729, "Species": "Elephant", "Conflict_Type": "Crop Raiding", "Severity": "High", "Land_Use": "Communal Farmland", "Mitigation_Action": "Chilli Fencing & Deterrents" }, "geometry": { "type": "Point", "coordinates": [ 26.046187702611729, -18.423924376326163 ] } },
{ "type": "Feature", "properties": { "District": "Hwange", "Latitude": -18.552467387258385, "Longitude": 26.375218765279602, "Species": "Nile Crocodile", "Conflict_Type": "Human Injury Risk / Livestock Risk", "Severity": "High", "Land_Use": "Watering Point / River", "Mitigation_Action": "Warning Signage & Fencing" }, "geometry": { "type": "Point", "coordinates": [ 26.375218765279602, -18.552467387258385 ] } },
{ "type": "Feature", "properties": { "District": "Hwange", "Latitude": -18.526848130985577, "Longitude": 26.398031599818815, "Species": "Buffalo", "Conflict_Type": "Crop Raiding & Disease Risk", "Severity": "Medium", "Land_Use": "Communal Grazing Area", "Mitigation_Action": "Veterinary Fencing" }, "geometry": { "type": "Point", "coordinates": [ 26.398031599818815, -18.526848130985577 ] } },
{ "type": "Feature", "properties": { "District": "Hwange", "Latitude": -18.204554862423009, "Longitude": 26.071661102919997, "Species": "Spotted Hyena", "Conflict_Type": "Livestock Depredation", "Severity": "Medium", "Land_Use": "Buffer Zone", "Mitigation_Action": "Reinforced Bomas (Kraals)" }, "geometry": { "type": "Point", "coordinates": [ 26.071661102919997, -18.204554862423009 ] } },
{ "type": "Feature", "properties": { "District": "Hwange", "Latitude": -18.271167425126844, "Longitude": 26.262529983177696, "Species": "Spotted Hyena", "Conflict_Type": "Livestock Depredation", "Severity": "Medium", "Land_Use": "Buffer Zone", "Mitigation_Action": "Reinforced Bomas (Kraals)" }, "geometry": { "type": "Point", "coordinates": [ 26.262529983177696, -18.271167425126844 ] } },
{ "type": "Feature", "properties": { "District": "Hwange", "Latitude": -18.206240212398399, "Longitude": 26.236683885610816, "Species": "Elephant", "Conflict_Type": "Crop Raiding", "Severity": "High", "Land_Use": "Communal Farmland", "Mitigation_Action": "Chilli Fencing & Deterrents" }, "geometry": { "type": "Point", "coordinates": [ 26.236683885610816, -18.206240212398399 ] } },
{ "type": "Feature", "properties": { "District": "Hwange", "Latitude": -18.27150160271783, "Longitude": 26.216345757973716, "Species": "Buffalo", "Conflict_Type": "Crop Raiding & Disease Risk", "Severity": "Medium", "Land_Use": "Communal Grazing Area", "Mitigation_Action": "Veterinary Fencing" }, "geometry": { "type": "Point", "coordinates": [ 26.216345757973716, -18.27150160271783 ] } },
{ "type": "Feature", "properties": { "District": "Hwange", "Latitude": -18.847522510344408, "Longitude": 26.696144889758699, "Species": "Nile Crocodile", "Conflict_Type": "Human Injury Risk / Livestock Risk", "Severity": "High", "Land_Use": "Watering Point / River", "Mitigation_Action": "Warning Signage & Fencing" }, "geometry": { "type": "Point", "coordinates": [ 26.696144889758699, -18.847522510344408 ] } },
{ "type": "Feature", "properties": { "District": "Hwange", "Latitude": -18.72478479901509, "Longitude": 26.476686154562096, "Species": "Nile Crocodile", "Conflict_Type": "Human Injury Risk / Livestock Risk", "Severity": "High", "Land_Use": "Watering Point / River", "Mitigation_Action": "Warning Signage & Fencing" }, "geometry": { "type": "Point", "coordinates": [ 26.476686154562096, -18.72478479901509 ] } },
{ "type": "Feature", "properties": { "District": "Hwange", "Latitude": -18.150821594957687, "Longitude": 26.877041544158434, "Species": "Nile Crocodile", "Conflict_Type": "Human Injury Risk / Livestock Risk", "Severity": "High", "Land_Use": "Watering Point / River", "Mitigation_Action": "Warning Signage & Fencing" }, "geometry": { "type": "Point", "coordinates": [ 26.877041544158434, -18.150821594957687 ] } },
{ "type": "Feature", "properties": { "District": "Hwange", "Latitude": -18.337775535567669, "Longitude": 26.974911075678495, "Species": "Spotted Hyena", "Conflict_Type": "Livestock Depredation", "Severity": "Medium", "Land_Use": "Buffer Zone", "Mitigation_Action": "Reinforced Bomas (Kraals)" }, "geometry": { "type": "Point", "coordinates": [ 26.974911075678495, -18.337775535567669 ] } },
{ "type": "Feature", "properties": { "District": "Hwange", "Latitude": -18.813028399581551, "Longitude": 26.290520697926105, "Species": "Spotted Hyena", "Conflict_Type": "Livestock Depredation", "Severity": "Medium", "Land_Use": "Buffer Zone", "Mitigation_Action": "Reinforced Bomas (Kraals)" }, "geometry": { "type": "Point", "coordinates": [ 26.290520697926105, -18.813028399581551 ] } },
{ "type": "Feature", "properties": { "District": "Hwange", "Latitude": -18.675685820986754, "Longitude": 26.064560193498846, "Species": "Lion", "Conflict_Type": "Livestock Depredation", "Severity": "High", "Land_Use": "Buffer Zone", "Mitigation_Action": "Ranger Patrols & Bomas" }, "geometry": { "type": "Point", "coordinates": [ 26.064560193498846, -18.675685820986754 ] } },
{ "type": "Feature", "properties": { "District": "Hwange", "Latitude": -18.428318466133984, "Longitude": 26.196349514757149, "Species": "Elephant", "Conflict_Type": "Crop Raiding", "Severity": "High", "Land_Use": "Communal Farmland", "Mitigation_Action": "Chilli Fencing & Deterrents" }, "geometry": { "type": "Point", "coordinates": [ 26.196349514757149, -18.428318466133984 ] } },
{ "type": "Feature", "properties": { "District": "Hwange", "Latitude": -18.441991275990524, "Longitude": 26.417244907996359, "Species": "Elephant", "Conflict_Type": "Crop Raiding", "Severity": "High", "Land_Use": "Communal Farmland", "Mitigation_Action": "Chilli Fencing & Deterrents" }, "geometry": { "type": "Point", "coordinates": [ 26.417244907996359, -18.441991275990524 ] } },
{ "type": "Feature", "properties": { "District": "Hwange", "Latitude": -18.261899144458926, "Longitude": 26.549880816047121, "Species": "Lion", "Conflict_Type": "Livestock Depredation", "Severity": "High", "Land_Use": "Buffer Zone", "Mitigation_Action": "Ranger Patrols & Bomas" }, "geometry": { "type": "Point", "coordinates": [ 26.549880816047121, -18.261899144458926 ] } },
{ "type": "Feature", "properties": { "District": "Hwange", "Latitude": -18.335964861214059, "Longitude": 26.744116035773178, "Species": "Elephant", "Conflict_Type": "Crop Raiding", "Severity": "High", "Land_Use": "Communal Farmland", "Mitigation_Action": "Chilli Fencing & Deterrents" }, "geometry": { "type": "Point", "coordinates": [ 26.744116035773178, -18.335964861214059 ] } },
{ "type": "Feature", "properties": { "District": "Hwange", "Latitude": -18.57242784534898, "Longitude": 26.857777174661297, "Species": "Elephant", "Conflict_Type": "Crop Raiding", "Severity": "High", "Land_Use": "Communal Farmland", "Mitigation_Action": "Chilli Fencing & Deterrents" }, "geometry": { "type": "Point", "coordinates": [ 26.857777174661297, -18.57242784534898 ] } },
{ "type": "Feature", "properties": { "District": "Hwange", "Latitude": -18.665792404399998, "Longitude": 26.513568778709569, "Species": "Lion", "Conflict_Type": "Livestock Depredation", "Severity": "High", "Land_Use": "Buffer Zone", "Mitigation_Action": "Ranger Patrols & Bomas" }, "geometry": { "type": "Point", "coordinates": [ 26.513568778709569, -18.665792404399998 ] } },
{ "type": "Feature", "properties": { "District": "Hwange", "Latitude": -18.315053123849928, "Longitude": 26.071720816913508, "Species": "Nile Crocodile", "Conflict_Type": "Human Injury Risk / Livestock Risk", "Severity": "High", "Land_Use": "Watering Point / River", "Mitigation_Action": "Warning Signage & Fencing" }, "geometry": { "type": "Point", "coordinates": [ 26.071720816913508, -18.315053123849928 ] } },
{ "type": "Feature", "properties": { "District": "Hwange", "Latitude": -18.219853920392943, "Longitude": 26.155735310931558, "Species": "Elephant", "Conflict_Type": "Crop Raiding", "Severity": "High", "Land_Use": "Communal Farmland", "Mitigation_Action": "Chilli Fencing & Deterrents" }, "geometry": { "type": "Point", "coordinates": [ 26.155735310931558, -18.219853920392943 ] } },
{ "type": "Feature", "properties": { "District": "Hwange", "Latitude": -18.271370921094029, "Longitude": 26.275825227787969, "Species": "Lion", "Conflict_Type": "Livestock Depredation", "Severity": "High", "Land_Use": "Buffer Zone", "Mitigation_Action": "Ranger Patrols & Bomas" }, "geometry": { "type": "Point", "coordinates": [ 26.275825227787969, -18.271370921094029 ] } },
{ "type": "Feature", "properties": { "District": "Hwange", "Latitude": -18.171732688408994, "Longitude": 26.185250482527092, "Species": "Elephant", "Conflict_Type": "Crop Raiding", "Severity": "High", "Land_Use": "Communal Farmland", "Mitigation_Action": "Chilli Fencing & Deterrents" }, "geometry": { "type": "Point", "coordinates": [ 26.185250482527092, -18.171732688408994 ] } },
{ "type": "Feature", "properties": { "District": "Hwange", "Latitude": -18.223832049363065, "Longitude": 26.966952857144211, "Species": "Nile Crocodile", "Conflict_Type": "Human Injury Risk / Livestock Risk", "Severity": "High", "Land_Use": "Watering Point / River", "Mitigation_Action": "Warning Signage & Fencing" }, "geometry": { "type": "Point", "coordinates": [ 26.966952857144211, -18.223832049363065 ] } },
{ "type": "Feature", "properties": { "District": "Hwange", "Latitude": -18.37517904838634, "Longitude": 26.892049313886499, "Species": "Nile Crocodile", "Conflict_Type": "Human Injury Risk / Livestock Risk", "Severity": "High", "Land_Use": "Watering Point / River", "Mitigation_Action": "Warning Signage & Fencing" }, "geometry": { "type": "Point", "coordinates": [ 26.892049313886499, -18.37517904838634 ] } },
{ "type": "Feature", "properties": { "District": "Hwange", "Latitude": -18.598284535312953, "Longitude": 26.438596644026337, "Species": "Buffalo", "Conflict_Type": "Crop Raiding & Disease Risk", "Severity": "Medium", "Land_Use": "Communal Grazing Area", "Mitigation_Action": "Veterinary Fencing" }, "geometry": { "type": "Point", "coordinates": [ 26.438596644026337, -18.598284535312953 ] } },
{ "type": "Feature", "properties": { "District": "Hwange", "Latitude": -18.212046897931447, "Longitude": 26.694602280629738, "Species": "Nile Crocodile", "Conflict_Type": "Human Injury Risk / Livestock Risk", "Severity": "High", "Land_Use": "Watering Point / River", "Mitigation_Action": "Warning Signage & Fencing" }, "geometry": { "type": "Point", "coordinates": [ 26.694602280629738, -18.212046897931447 ] } },
{ "type": "Feature", "properties": { "District": "Hwange", "Latitude": -18.68069502758156, "Longitude": 26.619001397858025, "Species": "Nile Crocodile", "Conflict_Type": "Human Injury Risk / Livestock Risk", "Severity": "High", "Land_Use": "Watering Point / River", "Mitigation_Action": "Warning Signage & Fencing" }, "geometry": { "type": "Point", "coordinates": [ 26.619001397858025, -18.68069502758156 ] } },
{ "type": "Feature", "properties": { "District": "Hwange", "Latitude": -18.584119641753734, "Longitude": 26.331165243852027, "Species": "Nile Crocodile", "Conflict_Type": "Human Injury Risk / Livestock Risk", "Severity": "High", "Land_Use": "Watering Point / River", "Mitigation_Action": "Warning Signage & Fencing" }, "geometry": { "type": "Point", "coordinates": [ 26.331165243852027, -18.584119641753734 ] } },
{ "type": "Feature", "properties": { "District": "Hwange", "Latitude": -18.841029274291799, "Longitude": 26.903730263673722, "Species": "Lion", "Conflict_Type": "Livestock Depredation", "Severity": "High", "Land_Use": "Buffer Zone", "Mitigation_Action": "Ranger Patrols & Bomas" }, "geometry": { "type": "Point", "coordinates": [ 26.903730263673722, -18.841029274291799 ] } },
{ "type": "Feature", "properties": { "District": "Hwange", "Latitude": -18.697475730303879, "Longitude": 26.786520141641663, "Species": "Elephant", "Conflict_Type": "Crop Raiding", "Severity": "High", "Land_Use": "Communal Farmland", "Mitigation_Action": "Chilli Fencing & Deterrents" }, "geometry": { "type": "Point", "coordinates": [ 26.786520141641663, -18.697475730303879 ] } },
{ "type": "Feature", "properties": { "District": "Hwange", "Latitude": -18.665961623830206, "Longitude": 26.398495034873111, "Species": "Spotted Hyena", "Conflict_Type": "Livestock Depredation", "Severity": "Medium", "Land_Use": "Buffer Zone", "Mitigation_Action": "Reinforced Bomas (Kraals)" }, "geometry": { "type": "Point", "coordinates": [ 26.398495034873111, -18.665961623830206 ] } },
{ "type": "Feature", "properties": { "District": "Hwange", "Latitude": -18.802170363248383, "Longitude": 26.336496660144672, "Species": "Buffalo", "Conflict_Type": "Crop Raiding & Disease Risk", "Severity": "Medium", "Land_Use": "Communal Grazing Area", "Mitigation_Action": "Veterinary Fencing" }, "geometry": { "type": "Point", "coordinates": [ 26.336496660144672, -18.802170363248383 ] } },
{ "type": "Feature", "properties": { "District": "Hwange", "Latitude": -18.069905626244701, "Longitude": 26.975497223943961, "Species": "Elephant", "Conflict_Type": "Crop Raiding", "Severity": "High", "Land_Use": "Communal Farmland", "Mitigation_Action": "Chilli Fencing & Deterrents" }, "geometry": { "type": "Point", "coordinates": [ 26.975497223943961, -18.069905626244701 ] } },
{ "type": "Feature", "properties": { "District": "Hwange", "Latitude": -18.877864350172604, "Longitude": 26.741009949667468, "Species": "Lion", "Conflict_Type": "Livestock Depredation", "Severity": "High", "Land_Use": "Buffer Zone", "Mitigation_Action": "Ranger Patrols & Bomas" }, "geometry": { "type": "Point", "coordinates": [ 26.741009949667468, -18.877864350172604 ] } },
{ "type": "Feature", "properties": { "District": "Hwange", "Latitude": -18.832961819717834, "Longitude": 26.111956555577684, "Species": "Buffalo", "Conflict_Type": "Crop Raiding & Disease Risk", "Severity": "Medium", "Land_Use": "Communal Grazing Area", "Mitigation_Action": "Veterinary Fencing" }, "geometry": { "type": "Point", "coordinates": [ 26.111956555577684, -18.832961819717834 ] } },
{ "type": "Feature", "properties": { "District": "Hwange", "Latitude": -18.441113083652876, "Longitude": 26.22237839396265, "Species": "Leopard", "Conflict_Type": "Small Stock Depredation", "Severity": "Medium", "Land_Use": "Buffer Zone", "Mitigation_Action": "Predator-proof Kraals" }, "geometry": { "type": "Point", "coordinates": [ 26.22237839396265, -18.441113083652876 ] } },
{ "type": "Feature", "properties": { "District": "Hwange", "Latitude": -18.258287319520459, "Longitude": 26.155822368945621, "Species": "Elephant", "Conflict_Type": "Crop Raiding", "Severity": "High", "Land_Use": "Communal Farmland", "Mitigation_Action": "Chilli Fencing & Deterrents" }, "geometry": { "type": "Point", "coordinates": [ 26.155822368945621, -18.258287319520459 ] } },
{ "type": "Feature", "properties": { "District": "Hwange", "Latitude": -18.423955663737221, "Longitude": 26.166412170889267, "Species": "Nile Crocodile", "Conflict_Type": "Human Injury Risk / Livestock Risk", "Severity": "High", "Land_Use": "Watering Point / River", "Mitigation_Action": "Warning Signage & Fencing" }, "geometry": { "type": "Point", "coordinates": [ 26.166412170889267, -18.423955663737221 ] } },
{ "type": "Feature", "properties": { "District": "Hwange", "Latitude": -18.397067807759534, "Longitude": 26.746197288675681, "Species": "Leopard", "Conflict_Type": "Small Stock Depredation", "Severity": "Medium", "Land_Use": "Buffer Zone", "Mitigation_Action": "Predator-proof Kraals" }, "geometry": { "type": "Point", "coordinates": [ 26.746197288675681, -18.397067807759534 ] } },
{ "type": "Feature", "properties": { "District": "Hwange", "Latitude": -18.175124707049878, "Longitude": 26.549221528699093, "Species": "Lion", "Conflict_Type": "Livestock Depredation", "Severity": "High", "Land_Use": "Buffer Zone", "Mitigation_Action": "Ranger Patrols & Bomas" }, "geometry": { "type": "Point", "coordinates": [ 26.549221528699093, -18.175124707049878 ] } },
{ "type": "Feature", "properties": { "District": "Hwange", "Latitude": -18.42767098906981, "Longitude": 26.836102607999813, "Species": "Leopard", "Conflict_Type": "Small Stock Depredation", "Severity": "Medium", "Land_Use": "Buffer Zone", "Mitigation_Action": "Predator-proof Kraals" }, "geometry": { "type": "Point", "coordinates": [ 26.836102607999813, -18.42767098906981 ] } },
{ "type": "Feature", "properties": { "District": "Hwange", "Latitude": -18.49007469735492, "Longitude": 26.920251141364531, "Species": "Elephant", "Conflict_Type": "Crop Raiding", "Severity": "High", "Land_Use": "Communal Farmland", "Mitigation_Action": "Chilli Fencing & Deterrents" }, "geometry": { "type": "Point", "coordinates": [ 26.920251141364531, -18.49007469735492 ] } },
{ "type": "Feature", "properties": { "District": "Hwange", "Latitude": -18.207865230913903, "Longitude": 26.444760824982634, "Species": "Lion", "Conflict_Type": "Livestock Depredation", "Severity": "High", "Land_Use": "Buffer Zone", "Mitigation_Action": "Ranger Patrols & Bomas" }, "geometry": { "type": "Point", "coordinates": [ 26.444760824982634, -18.207865230913903 ] } },
{ "type": "Feature", "properties": { "District": "Hwange", "Latitude": -18.443153678013889, "Longitude": 26.702952402170325, "Species": "Elephant", "Conflict_Type": "Crop Raiding", "Severity": "High", "Land_Use": "Communal Farmland", "Mitigation_Action": "Chilli Fencing & Deterrents" }, "geometry": { "type": "Point", "coordinates": [ 26.702952402170325, -18.443153678013889 ] } },
{ "type": "Feature", "properties": { "District": "Hwange", "Latitude": -18.892015093156104, "Longitude": 26.77259169601335, "Species": "Leopard", "Conflict_Type": "Small Stock Depredation", "Severity": "Medium", "Land_Use": "Buffer Zone", "Mitigation_Action": "Predator-proof Kraals" }, "geometry": { "type": "Point", "coordinates": [ 26.77259169601335, -18.892015093156104 ] } },
{ "type": "Feature", "properties": { "District": "Hwange", "Latitude": -18.435775533357589, "Longitude": 26.960357608144211, "Species": "Leopard", "Conflict_Type": "Small Stock Depredation", "Severity": "Medium", "Land_Use": "Buffer Zone", "Mitigation_Action": "Predator-proof Kraals" }, "geometry": { "type": "Point", "coordinates": [ 26.960357608144211, -18.435775533357589 ] } },
{ "type": "Feature", "properties": { "District": "Hwange", "Latitude": -18.599723793740921, "Longitude": 26.877840131486046, "Species": "Buffalo", "Conflict_Type": "Crop Raiding & Disease Risk", "Severity": "Medium", "Land_Use": "Communal Grazing Area", "Mitigation_Action": "Veterinary Fencing" }, "geometry": { "type": "Point", "coordinates": [ 26.877840131486046, -18.599723793740921 ] } },
{ "type": "Feature", "properties": { "District": "Hwange", "Latitude": -18.636070624921675, "Longitude": 26.242940250785121, "Species": "Elephant", "Conflict_Type": "Crop Raiding", "Severity": "High", "Land_Use": "Communal Farmland", "Mitigation_Action": "Chilli Fencing & Deterrents" }, "geometry": { "type": "Point", "coordinates": [ 26.242940250785121, -18.636070624921675 ] } },
{ "type": "Feature", "properties": { "District": "Hwange", "Latitude": -18.067341852028683, "Longitude": 26.657519175317759, "Species": "Buffalo", "Conflict_Type": "Crop Raiding & Disease Risk", "Severity": "Medium", "Land_Use": "Communal Grazing Area", "Mitigation_Action": "Veterinary Fencing" }, "geometry": { "type": "Point", "coordinates": [ 26.657519175317759, -18.067341852028683 ] } },
{ "type": "Feature", "properties": { "District": "Hwange", "Latitude": -18.665977322979259, "Longitude": 26.249297298642901, "Species": "Buffalo", "Conflict_Type": "Crop Raiding & Disease Risk", "Severity": "Medium", "Land_Use": "Communal Grazing Area", "Mitigation_Action": "Veterinary Fencing" }, "geometry": { "type": "Point", "coordinates": [ 26.249297298642901, -18.665977322979259 ] } },
{ "type": "Feature", "properties": { "District": "Hwange", "Latitude": -18.063162796123994, "Longitude": 26.757041793741895, "Species": "Buffalo", "Conflict_Type": "Crop Raiding & Disease Risk", "Severity": "Medium", "Land_Use": "Communal Grazing Area", "Mitigation_Action": "Veterinary Fencing" }, "geometry": { "type": "Point", "coordinates": [ 26.757041793741895, -18.063162796123994 ] } },
{ "type": "Feature", "properties": { "District": "Hwange", "Latitude": -18.114757357022022, "Longitude": 26.377317765103435, "Species": "Lion", "Conflict_Type": "Livestock Depredation", "Severity": "High", "Land_Use": "Buffer Zone", "Mitigation_Action": "Ranger Patrols & Bomas" }, "geometry": { "type": "Point", "coordinates": [ 26.377317765103435, -18.114757357022022 ] } },
{ "type": "Feature", "properties": { "District": "Hwange", "Latitude": -18.802877541280388, "Longitude": 26.974026859567992, "Species": "Elephant", "Conflict_Type": "Crop Raiding", "Severity": "High", "Land_Use": "Communal Farmland", "Mitigation_Action": "Chilli Fencing & Deterrents" }, "geometry": { "type": "Point", "coordinates": [ 26.974026859567992, -18.802877541280388 ] } },
{ "type": "Feature", "properties": { "District": "Hwange", "Latitude": -18.026779493608146, "Longitude": 26.319760779693993, "Species": "Lion", "Conflict_Type": "Livestock Depredation", "Severity": "High", "Land_Use": "Buffer Zone", "Mitigation_Action": "Ranger Patrols & Bomas" }, "geometry": { "type": "Point", "coordinates": [ 26.319760779693993, -18.026779493608146 ] } },
{ "type": "Feature", "properties": { "District": "Hwange", "Latitude": -18.490797825316523, "Longitude": 26.309068037307899, "Species": "Elephant", "Conflict_Type": "Crop Raiding", "Severity": "High", "Land_Use": "Communal Farmland", "Mitigation_Action": "Chilli Fencing & Deterrents" }, "geometry": { "type": "Point", "coordinates": [ 26.309068037307899, -18.490797825316523 ] } },
{ "type": "Feature", "properties": { "District": "Hwange", "Latitude": -18.790930438699263, "Longitude": 26.549213568770742, "Species": "Buffalo", "Conflict_Type": "Crop Raiding & Disease Risk", "Severity": "Medium", "Land_Use": "Communal Grazing Area", "Mitigation_Action": "Veterinary Fencing" }, "geometry": { "type": "Point", "coordinates": [ 26.549213568770742, -18.790930438699263 ] } },
{ "type": "Feature", "properties": { "District": "Hwange", "Latitude": -18.828456885827723, "Longitude": 26.835848245595901, "Species": "Leopard", "Conflict_Type": "Small Stock Depredation", "Severity": "Medium", "Land_Use": "Buffer Zone", "Mitigation_Action": "Predator-proof Kraals" }, "geometry": { "type": "Point", "coordinates": [ 26.835848245595901, -18.828456885827723 ] } },
{ "type": "Feature", "properties": { "District": "Hwange", "Latitude": -18.070973686884631, "Longitude": 26.040187884848038, "Species": "Elephant", "Conflict_Type": "Crop Raiding", "Severity": "High", "Land_Use": "Communal Farmland", "Mitigation_Action": "Chilli Fencing & Deterrents" }, "geometry": { "type": "Point", "coordinates": [ 26.040187884848038, -18.070973686884631 ] } },
{ "type": "Feature", "properties": { "District": "Hwange", "Latitude": -18.805727932269985, "Longitude": 26.264786355417641, "Species": "Leopard", "Conflict_Type": "Small Stock Depredation", "Severity": "Medium", "Land_Use": "Buffer Zone", "Mitigation_Action": "Predator-proof Kraals" }, "geometry": { "type": "Point", "coordinates": [ 26.264786355417641, -18.805727932269985 ] } },
{ "type": "Feature", "properties": { "District": "Hwange", "Latitude": -18.375836239108324, "Longitude": 26.313076935272363, "Species": "Buffalo", "Conflict_Type": "Crop Raiding & Disease Risk", "Severity": "Medium", "Land_Use": "Communal Grazing Area", "Mitigation_Action": "Veterinary Fencing" }, "geometry": { "type": "Point", "coordinates": [ 26.313076935272363, -18.375836239108324 ] } },
{ "type": "Feature", "properties": { "District": "Hwange", "Latitude": -18.665792404399998, "Longitude": 26.513568778709569, "Species": "Lion", "Conflict_Type": "Livestock Depredation", "Severity": "High", "Land_Use": "Buffer Zone", "Mitigation_Action": "Ranger Patrols & Bomas" }, "geometry": { "type": "Point", "coordinates": [ 26.513568778709569, -18.665792404399998 ] } },
{ "type": "Feature", "properties": { "District": "Hwange", "Latitude": -18.239328222956274, "Longitude": 26.741029177112047, "Species": "Leopard", "Conflict_Type": "Small Stock Depredation", "Severity": "Medium", "Land_Use": "Buffer Zone", "Mitigation_Action": "Predator-proof Kraals" }, "geometry": { "type": "Point", "coordinates": [ 26.741029177112047, -18.239328222956274 ] } },
{ "type": "Feature", "properties": { "District": "Hwange", "Latitude": -18.423924376326163, "Longitude": 26.046187702611729, "Species": "Elephant", "Conflict_Type": "Crop Raiding", "Severity": "High", "Land_Use": "Communal Farmland", "Mitigation_Action": "Chilli Fencing & Deterrents" }, "geometry": { "type": "Point", "coordinates": [ 26.046187702611729, -18.423924376326163 ] } },
{ "type": "Feature", "properties": { "District": "Hwange", "Latitude": -18.337775535567669, "Longitude": 26.974911075678495, "Species": "Spotted Hyena", "Conflict_Type": "Livestock Depredation", "Severity": "Medium", "Land_Use": "Buffer Zone", "Mitigation_Action": "Reinforced Bomas (Kraals)" }, "geometry": { "type": "Point", "coordinates": [ 26.974911075678495, -18.337775535567669 ] } },
{ "type": "Feature", "properties": { "District": "Hwange", "Latitude": -18.57242784534898, "Longitude": 26.857777174661297, "Species": "Elephant", "Conflict_Type": "Crop Raiding", "Severity": "High", "Land_Use": "Communal Farmland", "Mitigation_Action": "Chilli Fencing & Deterrents" }, "geometry": { "type": "Point", "coordinates": [ 26.857777174661297, -18.57242784534898 ] } },
{ "type": "Feature", "properties": { "District": "Hwange", "Latitude": -18.734542396460441, "Longitude": 26.479186208548978, "Species": "Leopard", "Conflict_Type": "Small Stock Depredation", "Severity": "Medium", "Land_Use": "Buffer Zone", "Mitigation_Action": "Predator-proof Kraals" }, "geometry": { "type": "Point", "coordinates": [ 26.479186208548978, -18.734542396460441 ] } },
{ "type": "Feature", "properties": { "District": "Hwange", "Latitude": -18.219853920392943, "Longitude": 26.155735310931558, "Species": "Elephant", "Conflict_Type": "Crop Raiding", "Severity": "High", "Land_Use": "Communal Farmland", "Mitigation_Action": "Chilli Fencing & Deterrents" }, "geometry": { "type": "Point", "coordinates": [ 26.155735310931558, -18.219853920392943 ] } },
{ "type": "Feature", "properties": { "District": "Hwange", "Latitude": -18.567540922174807, "Longitude": 26.381071208222917, "Species": "Nile Crocodile", "Conflict_Type": "Human Injury Risk / Livestock Risk", "Severity": "High", "Land_Use": "Watering Point / River", "Mitigation_Action": "Warning Signage & Fencing" }, "geometry": { "type": "Point", "coordinates": [ 26.381071208222917, -18.567540922174807 ] } },
{ "type": "Feature", "properties": { "District": "Hwange", "Latitude": -18.841029274291799, "Longitude": 26.903730263673722, "Species": "Lion", "Conflict_Type": "Livestock Depredation", "Severity": "High", "Land_Use": "Buffer Zone", "Mitigation_Action": "Ranger Patrols & Bomas" }, "geometry": { "type": "Point", "coordinates": [ 26.903730263673722, -18.841029274291799 ] } },
{ "type": "Feature", "properties": { "District": "Hwange", "Latitude": -18.171732688408994, "Longitude": 26.185250482527092, "Species": "Elephant", "Conflict_Type": "Crop Raiding", "Severity": "High", "Land_Use": "Communal Farmland", "Mitigation_Action": "Chilli Fencing & Deterrents" }, "geometry": { "type": "Point", "coordinates": [ 26.185250482527092, -18.171732688408994 ] } },
{ "type": "Feature", "properties": { "District": "Hwange", "Latitude": -18.357097323773779, "Longitude": 26.044757563807035, "Species": "Spotted Hyena", "Conflict_Type": "Livestock Depredation", "Severity": "Medium", "Land_Use": "Buffer Zone", "Mitigation_Action": "Reinforced Bomas (Kraals)" }, "geometry": { "type": "Point", "coordinates": [ 26.044757563807035, -18.357097323773779 ] } },
{ "type": "Feature", "properties": { "District": "Hwange", "Latitude": -18.697475730303879, "Longitude": 26.786520141641663, "Species": "Elephant", "Conflict_Type": "Crop Raiding", "Severity": "High", "Land_Use": "Communal Farmland", "Mitigation_Action": "Chilli Fencing & Deterrents" }, "geometry": { "type": "Point", "coordinates": [ 26.786520141641663, -18.697475730303879 ] } },
{ "type": "Feature", "properties": { "District": "Hwange", "Latitude": -18.512208626202163, "Longitude": 26.042106276244539, "Species": "Spotted Hyena", "Conflict_Type": "Livestock Depredation", "Severity": "Medium", "Land_Use": "Buffer Zone", "Mitigation_Action": "Reinforced Bomas (Kraals)" }, "geometry": { "type": "Point", "coordinates": [ 26.042106276244539, -18.512208626202163 ] } },
{ "type": "Feature", "properties": { "District": "Hwange", "Latitude": -18.069905626244701, "Longitude": 26.975497223943961, "Species": "Elephant", "Conflict_Type": "Crop Raiding", "Severity": "High", "Land_Use": "Communal Farmland", "Mitigation_Action": "Chilli Fencing & Deterrents" }, "geometry": { "type": "Point", "coordinates": [ 26.975497223943961, -18.069905626244701 ] } },
{ "type": "Feature", "properties": { "District": "Hwange", "Latitude": -18.568718136770048, "Longitude": 26.44487546513065, "Species": "Elephant", "Conflict_Type": "Crop Raiding", "Severity": "High", "Land_Use": "Communal Farmland", "Mitigation_Action": "Chilli Fencing & Deterrents" }, "geometry": { "type": "Point", "coordinates": [ 26.44487546513065, -18.568718136770048 ] } },
{ "type": "Feature", "properties": { "District": "Hwange", "Latitude": -18.877864350172604, "Longitude": 26.741009949667468, "Species": "Lion", "Conflict_Type": "Livestock Depredation", "Severity": "High", "Land_Use": "Buffer Zone", "Mitigation_Action": "Ranger Patrols & Bomas" }, "geometry": { "type": "Point", "coordinates": [ 26.741009949667468, -18.877864350172604 ] } },
{ "type": "Feature", "properties": { "District": "Hwange", "Latitude": -17.963192393509832, "Longitude": 26.171008621353131, "Species": "Spotted Hyena", "Conflict_Type": "Livestock Depredation", "Severity": "Medium", "Land_Use": "Buffer Zone", "Mitigation_Action": "Reinforced Bomas (Kraals)" }, "geometry": { "type": "Point", "coordinates": [ 26.171008621353131, -17.963192393509832 ] } },
{ "type": "Feature", "properties": { "District": "Hwange", "Latitude": -18.441113083652876, "Longitude": 26.22237839396265, "Species": "Leopard", "Conflict_Type": "Small Stock Depredation", "Severity": "Medium", "Land_Use": "Buffer Zone", "Mitigation_Action": "Predator-proof Kraals" }, "geometry": { "type": "Point", "coordinates": [ 26.22237839396265, -18.441113083652876 ] } },
{ "type": "Feature", "properties": { "District": "Hwange", "Latitude": -18.674226069821209, "Longitude": 26.502380739136989, "Species": "Buffalo", "Conflict_Type": "Crop Raiding & Disease Risk", "Severity": "Medium", "Land_Use": "Communal Grazing Area", "Mitigation_Action": "Veterinary Fencing" }, "geometry": { "type": "Point", "coordinates": [ 26.502380739136989, -18.674226069821209 ] } },
{ "type": "Feature", "properties": { "District": "Hwange", "Latitude": -18.423955663737221, "Longitude": 26.166412170889267, "Species": "Nile Crocodile", "Conflict_Type": "Human Injury Risk / Livestock Risk", "Severity": "High", "Land_Use": "Watering Point / River", "Mitigation_Action": "Warning Signage & Fencing" }, "geometry": { "type": "Point", "coordinates": [ 26.166412170889267, -18.423955663737221 ] } },
{ "type": "Feature", "properties": { "District": "Hwange", "Latitude": -18.105063945284705, "Longitude": 26.004304275945469, "Species": "Nile Crocodile", "Conflict_Type": "Human Injury Risk / Livestock Risk", "Severity": "High", "Land_Use": "Watering Point / River", "Mitigation_Action": "Warning Signage & Fencing" }, "geometry": { "type": "Point", "coordinates": [ 26.004304275945469, -18.105063945284705 ] } },
{ "type": "Feature", "properties": { "District": "Hwange", "Latitude": -18.175124707049878, "Longitude": 26.549221528699093, "Species": "Lion", "Conflict_Type": "Livestock Depredation", "Severity": "High", "Land_Use": "Buffer Zone", "Mitigation_Action": "Ranger Patrols & Bomas" }, "geometry": { "type": "Point", "coordinates": [ 26.549221528699093, -18.175124707049878 ] } },
{ "type": "Feature", "properties": { "District": "Hwange", "Latitude": -18.806206660830416, "Longitude": 26.535793054801672, "Species": "Elephant", "Conflict_Type": "Crop Raiding", "Severity": "High", "Land_Use": "Communal Farmland", "Mitigation_Action": "Chilli Fencing & Deterrents" }, "geometry": { "type": "Point", "coordinates": [ 26.535793054801672, -18.806206660830416 ] } },
{ "type": "Feature", "properties": { "District": "Hwange", "Latitude": -18.49007469735492, "Longitude": 26.920251141364531, "Species": "Elephant", "Conflict_Type": "Crop Raiding", "Severity": "High", "Land_Use": "Communal Farmland", "Mitigation_Action": "Chilli Fencing & Deterrents" }, "geometry": { "type": "Point", "coordinates": [ 26.920251141364531, -18.49007469735492 ] } },
{ "type": "Feature", "properties": { "District": "Hwange", "Latitude": -18.278113310418043, "Longitude": 26.666664736451857, "Species": "Nile Crocodile", "Conflict_Type": "Human Injury Risk / Livestock Risk", "Severity": "High", "Land_Use": "Watering Point / River", "Mitigation_Action": "Warning Signage & Fencing" }, "geometry": { "type": "Point", "coordinates": [ 26.666664736451857, -18.278113310418043 ] } },
{ "type": "Feature", "properties": { "District": "Hwange", "Latitude": -18.443153678013889, "Longitude": 26.702952402170325, "Species": "Elephant", "Conflict_Type": "Crop Raiding", "Severity": "High", "Land_Use": "Communal Farmland", "Mitigation_Action": "Chilli Fencing & Deterrents" }, "geometry": { "type": "Point", "coordinates": [ 26.702952402170325, -18.443153678013889 ] } },
{ "type": "Feature", "properties": { "District": "Hwange", "Latitude": -18.389421765742046, "Longitude": 26.700219668898779, "Species": "Elephant", "Conflict_Type": "Crop Raiding", "Severity": "High", "Land_Use": "Communal Farmland", "Mitigation_Action": "Chilli Fencing & Deterrents" }, "geometry": { "type": "Point", "coordinates": [ 26.700219668898779, -18.389421765742046 ] } },
{ "type": "Feature", "properties": { "District": "Hwange", "Latitude": -18.435775533357589, "Longitude": 26.960357608144211, "Species": "Leopard", "Conflict_Type": "Small Stock Depredation", "Severity": "Medium", "Land_Use": "Buffer Zone", "Mitigation_Action": "Predator-proof Kraals" }, "geometry": { "type": "Point", "coordinates": [ 26.960357608144211, -18.435775533357589 ] } },
{ "type": "Feature", "properties": { "District": "Hwange", "Latitude": -18.489979527218654, "Longitude": 26.277110858803109, "Species": "Nile Crocodile", "Conflict_Type": "Human Injury Risk / Livestock Risk", "Severity": "High", "Land_Use": "Watering Point / River", "Mitigation_Action": "Warning Signage & Fencing" }, "geometry": { "type": "Point", "coordinates": [ 26.277110858803109, -18.489979527218654 ] } },
{ "type": "Feature", "properties": { "District": "Hwange", "Latitude": -18.636070624921675, "Longitude": 26.242940250785121, "Species": "Elephant", "Conflict_Type": "Crop Raiding", "Severity": "High", "Land_Use": "Communal Farmland", "Mitigation_Action": "Chilli Fencing & Deterrents" }, "geometry": { "type": "Point", "coordinates": [ 26.242940250785121, -18.636070624921675 ] } },
{ "type": "Feature", "properties": { "District": "Hwange", "Latitude": -18.039907490433432, "Longitude": 26.623521461054555, "Species": "Nile Crocodile", "Conflict_Type": "Human Injury Risk / Livestock Risk", "Severity": "High", "Land_Use": "Watering Point / River", "Mitigation_Action": "Warning Signage & Fencing" }, "geometry": { "type": "Point", "coordinates": [ 26.623521461054555, -18.039907490433432 ] } },
{ "type": "Feature", "properties": { "District": "Hwange", "Latitude": -18.665977322979259, "Longitude": 26.249297298642901, "Species": "Buffalo", "Conflict_Type": "Crop Raiding & Disease Risk", "Severity": "Medium", "Land_Use": "Communal Grazing Area", "Mitigation_Action": "Veterinary Fencing" }, "geometry": { "type": "Point", "coordinates": [ 26.249297298642901, -18.665977322979259 ] } },
{ "type": "Feature", "properties": { "District": "Hwange", "Latitude": -18.3315574626582, "Longitude": 26.718364274626332, "Species": "Elephant", "Conflict_Type": "Crop Raiding", "Severity": "High", "Land_Use": "Communal Farmland", "Mitigation_Action": "Chilli Fencing & Deterrents" }, "geometry": { "type": "Point", "coordinates": [ 26.718364274626332, -18.3315574626582 ] } },
{ "type": "Feature", "properties": { "District": "Hwange", "Latitude": -18.114757357022022, "Longitude": 26.377317765103435, "Species": "Lion", "Conflict_Type": "Livestock Depredation", "Severity": "High", "Land_Use": "Buffer Zone", "Mitigation_Action": "Ranger Patrols & Bomas" }, "geometry": { "type": "Point", "coordinates": [ 26.377317765103435, -18.114757357022022 ] } },
{ "type": "Feature", "properties": { "District": "Hwange", "Latitude": -18.128564787361903, "Longitude": 26.256038354846478, "Species": "Buffalo", "Conflict_Type": "Crop Raiding & Disease Risk", "Severity": "Medium", "Land_Use": "Communal Grazing Area", "Mitigation_Action": "Veterinary Fencing" }, "geometry": { "type": "Point", "coordinates": [ 26.256038354846478, -18.128564787361903 ] } },
{ "type": "Feature", "properties": { "District": "Hwange", "Latitude": -18.026779493608146, "Longitude": 26.319760779693993, "Species": "Lion", "Conflict_Type": "Livestock Depredation", "Severity": "High", "Land_Use": "Buffer Zone", "Mitigation_Action": "Ranger Patrols & Bomas" }, "geometry": { "type": "Point", "coordinates": [ 26.319760779693993, -18.026779493608146 ] } },
{ "type": "Feature", "properties": { "District": "Hwange", "Latitude": -18.594153879684679, "Longitude": 26.066676076584461, "Species": "Lion", "Conflict_Type": "Livestock Depredation", "Severity": "High", "Land_Use": "Buffer Zone", "Mitigation_Action": "Ranger Patrols & Bomas" }, "geometry": { "type": "Point", "coordinates": [ 26.066676076584461, -18.594153879684679 ] } }
]
}
